TIANQI A                
1 64058U 25105A   25163.62775521 -.00000027  00000+0  58558-4 0  9992
2 64058  44.9783 226.6199 0011805  82.2486  21.2906 14.11082044  3435
TIANQI B                
1 64059U 25105B   25163.63334775  .00000026  00000+0  85305-4 0  9994
2 64059  45.0091 226.5259 0012958  96.0973  65.6251 14.12604913  3431
TIANQI C                
1 64060U 25105C   25163.56395292  .00000014  00000+0  80397-4 0  9992
2 64060  44.9847 226.8829 0011602  89.9431  63.5199 14.11468996  3426
TIANQI D                
1 64061U 25105D   25163.63465439  .00000001  00000+0  72892-4 0  9999
2 64061  44.9848 226.5519 0010986  85.1010  73.5087 14.11747343  3441
CHINASAT 3B             
1 64062U 25106A   25168.48751421 -.00000034  00000+0  00000+0 0  9992
2 64062   0.0319  87.6140 0001694 164.0588 357.1169  1.00271491   413
CZ-7A R/B               
1 64063U 25106B   25168.07772900  .00223628 -40160-6  22460-2 0  9994
2 64063  15.5976  64.2839 7108049 202.1471  97.4277  2.55922355   691
STARLINK-11741 [DTC]    
1 64064U 25107A   25168.50001157 -.00035233  00000+0 -20040-3 0  9992
2 64064  42.9963 258.1796 0001695 264.5310 121.8912 15.77858894  5512
STARLINK-11709 [DTC]    
1 64065U 25107B   25168.30060282  .00246648  00000+0  13728-2 0  9991
2 64065  42.9946 259.3214 0001197  81.4787 278.6219 15.77965862  5484
STARLINK-11737 [DTC]    
1 64066U 25107C   25168.54892097  .00227760  00000+0  12745-2 0  9997
2 64066  42.9970 257.7413 0002688 274.4465  85.6098 15.77898099  5497
STARLINK-11726 [DTC]    
1 64067U 25107D   25168.54403608  .00326198  00000+0  17927-2 0  9996
2 64067  42.9958 257.7013 0001818 259.4223 100.6442 15.78027088  5527
STARLINK-11700 [DTC]    
1 64068U 25107E   25168.53915874  .00278248  00000+0  15478-2 0  9990
2 64068  42.9982 257.6628 0001583 267.7209  92.3480 15.77889836  5559
STARLINK-11649 [DTC]    
1 64069U 25107F   25168.53427973  .00193437  00000+0  10861-2 0  9996
2 64069  42.9965 257.6217 0001334 242.9585 117.1149 15.77923626  5555
STARLINK-11713 [DTC]    
1 64070U 25107G   25168.52940019  .00261695  00000+0  14562-2 0  9992
2 64070  42.9973 257.5832 0000770 229.6588 130.4215 15.77928484  5544
STARLINK-11719 [DTC]    
1 64071U 25107H   25168.52452297  .00318407  00000+0  17586-2 0  9992
2 64071  42.9964 257.5449 0000512 191.9942 168.0916 15.77936527  5540
STARLINK-11733 [DTC]    
1 64072U 25107J   25168.51964267  .00230495  00000+0  12889-2 0  9998
2 64072  42.9977 257.5079 0001734 273.0181  87.0490 15.77907382  5542
STARLINK-11729 [DTC]    
1 64073U 25107K   25168.32486134  .00136910  00000+0  77311-3 0  9999
2 64073  42.9969 258.6242 0001483 272.4366  87.6334 15.77968966  5512
STARLINK-11730 [DTC]    
1 64074U 25107L   25168.50988504  .00282809  00000+0  15673-2 0  9999
2 64074  42.9981 257.4276 0002317 289.1444  70.9175 15.77960165  5544
STARLINK-11723 [DTC]    
1 64075U 25107M   25167.91668981 -.00005183  00000+0 -26930-4 0  9998
2 64075  42.9983 260.9722 0001652 267.5519 346.6268 15.77859272  5436
STARLINK-11715 [DTC]    
1 64076U 25107N   25167.91668981 -.00011481  00000+0 -63176-4 0  9990
2 64076  42.9983 260.9028 0001748 265.0358  16.8961 15.77862697  5437
STARLINK-34201          
1 64077U 25107P   25168.16667824  .00061183  00000+0  14624-2 0  9998
2 64077  42.9987 262.6228 0001534 263.0966 126.7189 15.40654465  5366
STARLINK-34190          
1 64078U 25107Q   25168.50001157 -.02331355  00000+0 -59093-1 0  9991
2 64078  42.9989 260.4659 0001377 278.0555 261.3438 15.42411012  5373
STARLINK-34168          
1 64079U 25107R   25168.50001157 -.01613540  00000+0 -31390-1 0  9990
2 64079  42.9987 260.3869 0000705 255.8134 316.3028 15.49877120  5520
STARLINK-34098          
1 64080U 25107S   25168.33285052  .00072785  00000+0  12347-2 0  9990
2 64080  42.9978 261.3553 0002457 284.4139  75.6448 15.50583671  5508
STARLINK-34180          
1 64081U 25107T   25168.16667824  .00057244  00000+0  13690-2 0  9998
2 64081  42.9990 262.5023 0001426 258.4456 181.0861 15.40663650  5489
STARLINK-34171          
1 64082U 25107U   25168.52506668  .00068742  00000+0  11669-2 0  9996
2 64082  42.9987 260.2173 0001998 271.6303  88.4328 15.50588009  5538
STARLINK-34126          
1 64083U 25107V   25168.50001157  .00006077  00000+0  15270-3 0  9994
2 64083  42.9984 260.6429 0001173 248.2759 217.4159 15.40685831  5417
STARLINK-34157          
1 64084U 25107W   25168.52369446  .00051632  00000+0  87914-3 0  9996
2 64084  43.0008 260.2071 0002225 282.1198  77.9413 15.50609386  5536
STARLINK-34140          
1 64085U 25107X   25168.52472306  .00060582  00000+0  10288-2 0  9990
2 64085  42.9977 260.2152 0001646 275.9340  84.1333 15.50625055  5537
STARLINK-34132          
1 64086U 25107Y   25165.75453492  .00056806  00000+0  96612-3 0  9998
2 64086  43.0002 276.4105 0002359 277.2504  82.8088 15.50605988  4821
2025-108A               
1 64087U 25108A   25168.52014583  .00003650  00000+0  20659-3 0  9999
2 64087  97.5124 243.9591 0016216 191.1973 168.8900 15.13568641  4146
2025-108B               
1 64088U 25108B   25168.52710029  .00005393  00000+0  30626-3 0  9999
2 64088  97.5088 243.9376 0015477 185.1430 174.9645 15.13243600  4101
2025-108C               
1 64089U 25108C   25168.52994848  .00004399  00000+0  25189-3 0  9996
2 64089  97.5057 243.9193 0016648 185.2891 174.8167 15.13033213  4103
2025-108D               
1 64090U 25108D   25168.52456910  .00003327  00000+0  18945-3 0  9993
2 64090  97.5056 243.9302 0015343 189.4891 170.6053 15.13424367  4105
2025-108E               
1 64091U 25108E   25168.52591950  .00007833  00000+0  44144-3 0  9994
2 64091  97.5050 243.9263 0015496 185.3300 174.7768 15.13368914  4108
2025-108F               
1 64092U 25108F   25168.52304977  .00008136  00000+0  45589-3 0  9997
2 64092  97.5044 243.9282 0015580 187.9148 172.1840 15.13561738  4107
ZK-1 R/B                
1 64093U 25108G   25168.51778386  .00009991  00000+0  24146-3 0  9992
2 64093  97.4634 244.7088 0103707 280.8086  78.1498 15.35874974  4161
COSMOS 2588             
1 64095U 25109A   25168.76736393  .00009288  00000+0  31158-3 0  9994
2 64095  72.9731 314.0482 0011096 202.7010 157.3697 15.30976390  3897
STARLINK-34178          
1 64096U 25110A   25168.35068751  .00054281  00000+0  97698-3 0  9992
2 64096  53.1593 188.7655 0000926  76.4783 283.6329 15.49317121  5029
STARLINK-34174          
1 64097U 25110B   25168.50001157  .00065756  00000+0  16417-2 0  9995
2 64097  53.1610 188.4349 0001128  77.5574 205.5593 15.39583727  5046
STARLINK-34146          
1 64098U 25110C   25168.16667824  .00021290  00000+0  54125-3 0  9991
2 64098  53.1607 189.9480 0000817  81.6630 180.5075 15.39591484  4997
STARLINK-34074          
1 64099U 25110D   25168.50001157 -.01477494  00000+0 -39327-1 0  9990
2 64099  53.1599 188.3285 0001021  92.2759 243.5369 15.40745707  5046
STARLINK-34082          
1 64100U 25110E   25168.50001157  .00073901  00000+0  18429-2 0  9996
2 64100  53.1611 188.4854 0000510  83.2939 174.1176 15.39565996  5042
STARLINK-34072          
1 64101U 25110F   25168.16667824  .00005474  00000+0  14683-3 0  9997
2 64101  53.1611 189.9995 0001194  85.6010 150.7163 15.39598814  4983
STARLINK-34104          
1 64102U 25110G   25168.16667824  .00008842  00000+0  23091-3 0  9993
2 64102  53.1607 189.9507 0000884  94.1310 166.1358 15.39599765  4995
STARLINK-34179          
1 64103U 25110H   25168.50001157  .00077274  00000+0  19258-2 0  9997
2 64103  53.1603 188.3308 0001331  75.2423 259.4073 15.39564743  5042
STARLINK-34176          
1 64104U 25110J   25168.50001157 -.01786623  00000+0 -45259-1 0  9995
2 64104  53.1596 188.2844 0001356  63.3060 293.6046 15.42302160  5047
STARLINK-33949          
1 64105U 25110K   25168.49684706 -.00411484  00000+0 -93383-2 0  9992
2 64105  53.1596 188.2570 0005130  13.8543 346.2603 15.44045089  5044
STARLINK-33970          
1 64106U 25110L   25168.50001157 -.01730589  00000+0 -41152-1 0  9995
2 64106  53.1591 188.2495 0001405  69.4233 305.9939 15.44598120  5043
STARLINK-33912          
1 64107U 25110M   25168.16667824 -.01595895  00000+0 -33614-1 0  9990
2 64107  53.1596 189.8153 0001144  91.4679 236.6346 15.47819368  4994
STARLINK-34156          
1 64108U 25110N   25168.42989242  .00034602  00000+0  62717-3 0  9990
2 64108  53.1598 188.5507 0001219  76.1246 283.9899 15.49321261  5035
STARLINK-34124          
1 64109U 25110P   25168.16667824  .00015830  00000+0  29221-3 0  9996
2 64109  53.1598 189.8046 0001151  97.8251 235.3504 15.49299043  4999
STARLINK-34145          
1 64110U 25110Q   25168.42901575  .00084677  00000+0  14812-2 0  9995
2 64110  53.1592 188.5442 0019330 293.4821  66.4156 15.49731744  5037
STARLINK-34148          
1 64111U 25110R   25168.42885114  .00041951  00000+0  75794-3 0  9991
2 64111  53.1593 188.5449 0001260  86.6145 273.5008 15.49321689  5030
STARLINK-34136          
1 64112U 25110S   25168.49311811 -.00234177  00000+0 -44213-2 0  9994
2 64112  53.1595 188.2334 0008314 182.1041 177.9934 15.48660842  5049
STARLINK-33839          
1 64113U 25110T   25168.36365483  .00027684  00000+0  50363-3 0  9990
2 64113  53.1594 188.8462 0001453  56.6909 303.4239 15.49332134  5025
STARLINK-34064          
1 64114U 25110U   25167.46020940 -.00004061  00000+0 -65247-4 0  9991
2 64114  53.1593 193.1620 0001513  81.9973 278.1208 15.49201452  4985
STARLINK-34067          
1 64115U 25110V   25168.49143885  .04395709  00000+0  58905-1 0  9994
2 64115  53.1585 188.2212 0017476 320.6476  39.3264 15.53216425  5043
STARLINK-34080          
1 64116U 25110W   25168.29780684 -.00342009  00000+0 -63277-2 0  9999
2 64116  53.1593 189.1466 0003162  17.1348 342.9767 15.49681137  5016
STARLINK-34122          
1 64117U 25110X   25168.36193973  .00045298  00000+0  81774-3 0  9998
2 64117  53.1593 188.8353 0001444  54.3031 305.8112 15.49310985  5024
